{
  "type": "FeatureCollection",
  "features": [
    {
      "type": "Feature",
      "properties": {
        "norad_id": 31095,
        "name": "FENGYUN 1C DEB",
        "group": "fengyun-1c-debris",
        "lat": -6.367258574553001,
        "lon": 131.35037530073976,
        "alt_km": 1606.8435136512544,
        "timestamp": "2025-12-14T05:42:18.740972+00:00",
        "meta_object_name": "FENGYUN 1C DEB",
        "meta_object_id": "1999-025BGR",
        "meta_epoch": "2025-12-13T15:02:21.481728",
        "meta_mean_motion": 13.06667701,
        "meta_eccentricity": 0.05000204,
        "meta_inclination": 98.5617,
        "meta_ra_of_asc_node": 129.8978,
        "meta_arg_of_pericenter": 189.7418,
        "meta_mean_anomaly": 169.3711,
        "meta_ephemeris_type": 0,
        "meta_classification_type": "U",
        "meta_norad_cat_id": 31095,
        "meta_element_set_no": 999,
        "meta_rev_at_epoch": 89459,
        "meta_bstar": 0.0010205947,
        "meta_mean_motion_dot": 5.89e-06,
        "meta_mean_motion_ddot": 0,
        "tle_line1": "1 31095U 99025BGR 25347.62663752  .00000589  00000+0  10206-2 0  9993",
        "tle_line2": "2 31095  98.5617 129.8978 0500020 189.7418 169.3711 13.06667701894595"
      },
      "geometry": {
        "type": "Point",
        "coordinates": [
          131.35037530073976,
          -6.367258574553001
        ]
      }
    },
    {
      "type": "Feature",
      "properties": {
        "norad_id": 31097,
        "name": "FENGYUN 1C DEB",
        "group": "fengyun-1c-debris",
        "lat": -21.484651368714623,
        "lon": 114.60101026603131,
        "alt_km": 737.2785572463063,
        "timestamp": "2025-12-14T05:42:18.740982+00:00",
        "meta_object_name": "FENGYUN 1C DEB",
        "meta_object_id": "1999-025BGT",
        "meta_epoch": "2025-12-13T13:50:16.265760",
        "meta_mean_motion": 14.47014492,
        "meta_eccentricity": 0.00154002,
        "meta_inclination": 98.8587,
        "meta_ra_of_asc_node": 110.3903,
        "meta_arg_of_pericenter": 268.1028,
        "meta_mean_anomaly": 228.0053,
        "meta_ephemeris_type": 0,
        "meta_classification_type": "U",
        "meta_norad_cat_id": 31097,
        "meta_element_set_no": 999,
        "meta_rev_at_epoch": 97050,
        "meta_bstar": 0.0032683657,
        "meta_mean_motion_dot": 0.0001188,
        "meta_mean_motion_ddot": 0,
        "tle_line1": "1 31097U 99025BGT 25347.57657715  .00011880  00000+0  32684-2 0  9991",
        "tle_line2": "2 31097  98.8587 110.3903 0015400 268.1028 228.0053 14.47014492970508"
      },
      "geometry": {
        "type": "Point",
        "coordinates": [
          114.60101026603131,
          -21.484651368714623
        ]
      }
    },
    {
      "type": "Feature",
      "properties": {
        "norad_id": 31098,
        "name": "FENGYUN 1C DEB",
        "group": "fengyun-1c-debris",
        "lat": -49.69377002851418,
        "lon": -84.3370278119982,
        "alt_km": 717.1776211973693,
        "timestamp": "2025-12-14T05:42:18.740992+00:00",
        "meta_object_name": "FENGYUN 1C DEB",
        "meta_object_id": "1999-025BGU",
        "meta_epoch": "2025-12-13T13:45:24.363360",
        "meta_mean_motion": 14.51554001,
        "meta_eccentricity": 0.00148623,
        "meta_inclination": 98.8699,
        "meta_ra_of_asc_node": 105.5706,
        "meta_arg_of_pericenter": 247.3016,
        "meta_mean_anomaly": 112.6606,
        "meta_ephemeris_type": 0,
        "meta_classification_type": "U",
        "meta_norad_cat_id": 31098,
        "meta_element_set_no": 999,
        "meta_rev_at_epoch": 96969,
        "meta_bstar": 0.0033375625,
        "meta_mean_motion_dot": 0.0001335,
        "meta_mean_motion_ddot": 0,
        "tle_line1": "1 31098U 99025BGU 25347.57319865  .00013350  00000+0  33376-2 0  9996",
        "tle_line2": "2 31098  98.8699 105.5706 0014862 247.3016 112.6606 14.51554001969697"
      },
      "geometry": {
        "type": "Point",
        "coordinates": [
          -84.3370278119982,
          -49.69377002851418
        ]
      }
    },
    {
      "type": "Feature",
      "properties": {
        "norad_id": 31099,
        "name": "FENGYUN 1C DEB",
        "group": "fengyun-1c-debris",
        "lat": -68.30651644908257,
        "lon": -95.94340727259305,
        "alt_km": 761.9984605791778,
        "timestamp": "2025-12-14T05:42:18.741003+00:00",
        "meta_object_name": "FENGYUN 1C DEB",
        "meta_object_id": "1999-025BGV",
        "meta_epoch": "2025-12-12T04:18:00.471168",
        "meta_mean_motion": 14.27920703,
        "meta_eccentricity": 0.00626993,
        "meta_inclination": 98.9385,
        "meta_ra_of_asc_node": 238.646,
        "meta_arg_of_pericenter": 283.0643,
        "meta_mean_anomaly": 230.6358,
        "meta_ephemeris_type": 0,
        "meta_classification_type": "U",
        "meta_norad_cat_id": 31099,
        "meta_element_set_no": 999,
        "meta_rev_at_epoch": 97463,
        "meta_bstar": 0.00047038954,
        "meta_mean_motion_dot": 1.143e-05,
        "meta_mean_motion_ddot": 0,
        "tle_line1": "1 31099U 99025BGV 25346.17917212  .00001143  00000+0  47039-3 0  9991",
        "tle_line2": "2 31099  98.9385 238.6460 0062699 283.0643 230.6358 14.27920703974634"
      },
      "geometry": {
        "type": "Point",
        "coordinates": [
          -95.94340727259305,
          -68.30651644908257
        ]
      }
    },
    {
      "type": "Feature",
      "properties": {
        "norad_id": 31146,
        "name": "FENGYUN 1C DEB",
        "group": "fengyun-1c-debris",
        "lat": 31.893888815255526,
        "lon": 104.74251908947822,
        "alt_km": 649.9529320053216,
        "timestamp": "2025-12-14T05:42:18.741015+00:00",
        "meta_object_name": "FENGYUN 1C DEB",
        "meta_object_id": "1999-025BGY",
        "meta_epoch": "2025-12-13T02:06:17.430336",
        "meta_mean_motion": 14.27705988,
        "meta_eccentricity": 0.02125723,
        "meta_inclination": 99.0408,
        "meta_ra_of_asc_node": 277.866,
        "meta_arg_of_pericenter": 165.9768,
        "meta_mean_anomaly": 194.7442,
        "meta_ephemeris_type": 0,
        "meta_classification_type": "U",
        "meta_norad_cat_id": 31146,
        "meta_element_set_no": 999,
        "meta_rev_at_epoch": 96770,
        "meta_bstar": 0.00051341708,
        "meta_mean_motion_dot": 1.56e-05,
        "meta_mean_motion_ddot": 0,
        "tle_line1": "1 31146U 99025BGY 25347.08770174  .00001560  00000+0  51342-3 0  9994",
        "tle_line2": "2 31146  99.0408 277.8660 0212572 165.9768 194.7442 14.27705988967705"
      },
      "geometry": {
        "type": "Point",
        "coordinates": [
          104.74251908947822,
          31.893888815255526
        ]
      }
    },
    {
      "type": "Feature",
      "properties": {
        "norad_id": 31148,
        "name": "FENGYUN 1C DEB",
        "group": "fengyun-1c-debris",
        "lat": 40.21780286153478,
        "lon": -133.71864195330426,
        "alt_km": 647.271428687518,
        "timestamp": "2025-12-14T05:42:18.741025+00:00",
        "meta_object_name": "FENGYUN 1C DEB",
        "meta_object_id": "1999-025BHA",
        "meta_epoch": "2025-12-10T15:00:25.932096",
        "meta_mean_motion": 14.43336097,
        "meta_eccentricity": 0.0136621,
        "meta_inclination": 98.8655,
        "meta_ra_of_asc_node": 230.106,
        "meta_arg_of_pericenter": 56.9202,
        "meta_mean_anomaly": 304.5019,
        "meta_ephemeris_type": 0,
        "meta_classification_type": "U",
        "meta_norad_cat_id": 31148,
        "meta_element_set_no": 999,
        "meta_rev_at_epoch": 97500,
        "meta_bstar": 0.001247,
        "meta_mean_motion_dot": 4.658e-05,
        "meta_mean_motion_ddot": 0,
        "tle_line1": "1 31148U 99025BHA 25344.62530014  .00004658  00000+0  12470-2 0  9999",
        "tle_line2": "2 31148  98.8655 230.1060 0136621  56.9202 304.5019 14.43336097975008"
      },
      "geometry": {
        "type": "Point",
        "coordinates": [
          -133.71864195330426,
          40.21780286153478
        ]
      }
    },
    {
      "type": "Feature",
      "properties": {
        "norad_id": 31150,
        "name": "FENGYUN 1C DEB",
        "group": "fengyun-1c-debris",
        "lat": -11.717670681876866,
        "lon": -1.334681374918262,
        "alt_km": 865.0667006035774,
        "timestamp": "2025-12-14T05:42:18.741035+00:00",
        "meta_object_name": "FENGYUN 1C DEB",
        "meta_object_id": "1999-025BHC",
        "meta_epoch": "2025-12-12T06:27:42.155424",
        "meta_mean_motion": 14.12732923,
        "meta_eccentricity": 0.00152502,
        "meta_inclination": 98.686,
        "meta_ra_of_asc_node": 354.9395,
        "meta_arg_of_pericenter": 160.7902,
        "meta_mean_anomaly": 261.7448,
        "meta_ephemeris_type": 0,
        "meta_classification_type": "U",
        "meta_norad_cat_id": 31150,
        "meta_element_set_no": 999,
        "meta_rev_at_epoch": 96290,
        "meta_bstar": 0.0002347459,
        "meta_mean_motion_dot": 3.93e-06,
        "meta_mean_motion_ddot": 0,
        "tle_line1": "1 31150U 99025BHC 25346.26923791  .00000393  00000+0  23475-3 0  9992",
        "tle_line2": "2 31150  98.6860 354.9395 0015250 160.7902 261.7448 14.12732923962907"
      },
      "geometry": {
        "type": "Point",
        "coordinates": [
          -1.334681374918262,
          -11.717670681876866
        ]
      }
    }
  ]
}